*******************************************************************************
Ephemeris / WWW_USER Mon Jul 15 19:26:20 2024 Pasadena, USA      / Horizons    
*******************************************************************************
Target body name: (2018 RA1)                      {source: JPL#6}
Center body name: Earth (399)                     {source: DE441}
Center-site name: Gemini South Obs., Cerro Pachon
*******************************************************************************
Start time      : A.D. 2018-Dec-28 23:56:00.0000 UT      
Stop  time      : A.D. 2018-Dec-29 09:33:00.0000 UT      
Step-size       : 1 minutes
*******************************************************************************
Target pole/equ : undefined
Target radii    : undefined                                                    
Center geodetic : 289.2634, -30.2406227, 2.71233  {E-lon(deg),Lat(deg),Alt(km)}
Center cylindric: 289.2634,5517.21435,-3194.81213 {E-lon(deg),Dxy(km),Dz(km)}
Center pole/equ : ITRF93                          {East-longitude positive}
Center radii    : 6378.137, 6378.137, 6356.752 km {Equator_a, b, pole_c}       
Target primary  : Sun
Vis. interferer : MOON (R_eq= 1737.400) km        {source: DE441}
Rel. light bend : Sun                             {source: DE441}
Rel. lght bnd GM: 1.3271E+11 km^3/s^2                                          
Small-body perts: Yes                             {source: SB441-N16}
Atmos refraction: NO (AIRLESS)
RA format       : HMS
Time format     : CAL 
Calendar mode   : Mixed Julian/Gregorian
RTS-only print  : NO       
EOP file        : eop.240715.p241008                                           
EOP coverage    : DATA-BASED 1962-JAN-20 TO 2024-JUL-15. PREDICTS-> 2024-OCT-07
Units conversion: 1 au= 149597870.700 km, c= 299792.458 km/s, 1 day= 86400.0 s 
Table cut-offs 1: Elevation (-90.0deg=NO ),Airmass (>38.000=NO), Daylight (YES)
Table cut-offs 2: Solar elongation (  0.0,180.0=NO ),Local Hour Angle( 0.0=NO )
Table cut-offs 3: RA/DEC angular rate (     0.0=NO )                           
*******************************************************************************
Initial IAU76/J2000 heliocentric ecliptic osculating elements (au, days, deg.):
  EPOCH=  2458369.5 ! 2018-Sep-08.00 (TDB)         Residual RMS= .21275        
   EC= .3232115344739424   QR= .7703453101153647   TP= 2458436.6763547547      
   OM= 166.2054176892707   W=  269.7217787981747   IN= 8.763099478405824       
  Equivalent ICRF heliocentric cartesian coordinates (au, au/d):
   X= 9.899686155013647E-01  Y=-2.468208982240139E-01  Z=-1.030323866474361E-01
  VX=-9.411283005844916E-04 VY= 1.717513364149167E-02 VZ= 4.613440841260365E-03
Asteroid physical parameters (km, seconds, rotational period in hours):        
   GM= n.a.                RAD= n.a.               ROTPER= n.a.                
   H= 26.4                 G= .150                 B-V= n.a.                   
                           ALBEDO= n.a.            STYP= n.a.                  
*******************************************************************************
 Date__(UT)__HR:MN     R.A._________(ICRF)_________DEC
******************************************************
$$SOE
 2018-Dec-29 04:02     14 07 04.572017 -17 15 35.36631
 2018-Dec-29 04:03     14 07 04.699979 -17 15 35.48982
 2018-Dec-29 04:04     14 07 04.827928 -17 15 35.61336
 2018-Dec-29 04:05     14 07 04.955867 -17 15 35.73694
 2018-Dec-29 04:06     14 07 05.083794 -17 15 35.86054
 2018-Dec-29 04:07     14 07 05.211709 -17 15 35.98417
 2018-Dec-29 04:08     14 07 05.339612 -17 15 36.10783
 2018-Dec-29 04:09     14 07 05.467504 -17 15 36.23152
 2018-Dec-29 04:10     14 07 05.595384 -17 15 36.35524
 2018-Dec-29 04:11     14 07 05.723253 -17 15 36.47898
 2018-Dec-29 04:12     14 07 05.851110 -17 15 36.60276
 2018-Dec-29 04:13     14 07 05.978955 -17 15 36.72656
 2018-Dec-29 04:14     14 07 06.106788 -17 15 36.85039
 2018-Dec-29 04:15     14 07 06.234609 -17 15 36.97424
 2018-Dec-29 04:16     14 07 06.362418 -17 15 37.09813
 2018-Dec-29 04:17     14 07 06.490216 -17 15 37.22204
 2018-Dec-29 04:18     14 07 06.618001 -17 15 37.34598
 2018-Dec-29 04:19     14 07 06.745775 -17 15 37.46994
 2018-Dec-29 04:20     14 07 06.873536 -17 15 37.59393
 2018-Dec-29 04:21     14 07 07.001286 -17 15 37.71795
 2018-Dec-29 04:22     14 07 07.129023 -17 15 37.84199
 2018-Dec-29 04:23     14 07 07.256748 -17 15 37.96606
 2018-Dec-29 04:24     14 07 07.384462 -17 15 38.09016
 2018-Dec-29 04:25     14 07 07.512163 -17 15 38.21428
 2018-Dec-29 04:26     14 07 07.639851 -17 15 38.33842
 2018-Dec-29 04:27     14 07 07.767528 -17 15 38.46259
 2018-Dec-29 04:28     14 07 07.895192 -17 15 38.58679
 2018-Dec-29 04:29     14 07 08.022845 -17 15 38.71100
 2018-Dec-29 04:30     14 07 08.150484 -17 15 38.83525
 2018-Dec-29 04:31     14 07 08.278112 -17 15 38.95951
 2018-Dec-29 04:32     14 07 08.405727 -17 15 39.08380
 2018-Dec-29 04:33     14 07 08.533330 -17 15 39.20812
 2018-Dec-29 04:34     14 07 08.660920 -17 15 39.33245
 2018-Dec-29 04:35     14 07 08.788498 -17 15 39.45681
 2018-Dec-29 04:36     14 07 08.916064 -17 15 39.58120
 2018-Dec-29 04:37  m  14 07 09.043617 -17 15 39.70560
 2018-Dec-29 04:38  m  14 07 09.171157 -17 15 39.83003
 2018-Dec-29 04:39  m  14 07 09.298685 -17 15 39.95448
 2018-Dec-29 04:40  m  14 07 09.426201 -17 15 40.07895
 2018-Dec-29 04:41  m  14 07 09.553703 -17 15 40.20345
 2018-Dec-29 04:42  m  14 07 09.681194 -17 15 40.32796
 2018-Dec-29 04:43  m  14 07 09.808671 -17 15 40.45250
 2018-Dec-29 04:44  m  14 07 09.936136 -17 15 40.57705
 2018-Dec-29 04:45  m  14 07 10.063588 -17 15 40.70163
 2018-Dec-29 04:46  m  14 07 10.191028 -17 15 40.82623
 2018-Dec-29 04:47  m  14 07 10.318455 -17 15 40.95085
 2018-Dec-29 04:48  m  14 07 10.445869 -17 15 41.07549
 2018-Dec-29 04:49  m  14 07 10.573270 -17 15 41.20015
 2018-Dec-29 04:50  m  14 07 10.700658 -17 15 41.32482
 2018-Dec-29 04:51  m  14 07 10.828034 -17 15 41.44952
 2018-Dec-29 04:52  m  14 07 10.955397 -17 15 41.57424
 2018-Dec-29 04:53  m  14 07 11.082747 -17 15 41.69897
 2018-Dec-29 04:54  m  14 07 11.210084 -17 15 41.82373
 2018-Dec-29 04:55  m  14 07 11.337408 -17 15 41.94850
 2018-Dec-29 04:56  m  14 07 11.464719 -17 15 42.07329
 2018-Dec-29 04:57  m  14 07 11.592017 -17 15 42.19810
 2018-Dec-29 04:58  m  14 07 11.719303 -17 15 42.32292
 2018-Dec-29 04:59  m  14 07 11.846575 -17 15 42.44777
 2018-Dec-29 05:00  m  14 07 11.973834 -17 15 42.57263
 2018-Dec-29 05:01  m  14 07 12.101080 -17 15 42.69751
 2018-Dec-29 05:02  m  14 07 12.228313 -17 15 42.82240
 2018-Dec-29 05:03  m  14 07 12.355533 -17 15 42.94731
 2018-Dec-29 05:04  m  14 07 12.482740 -17 15 43.07224
 2018-Dec-29 05:05  m  14 07 12.609934 -17 15 43.19718
 2018-Dec-29 05:06  m  14 07 12.737115 -17 15 43.32214
 2018-Dec-29 05:07  m  14 07 12.864282 -17 15 43.44711
 2018-Dec-29 05:08  m  14 07 12.991437 -17 15 43.57210
 2018-Dec-29 05:09  m  14 07 13.118578 -17 15 43.69711
 2018-Dec-29 05:10  m  14 07 13.245706 -17 15 43.82213
 2018-Dec-29 05:11  m  14 07 13.372820 -17 15 43.94716
 2018-Dec-29 05:12  m  14 07 13.499922 -17 15 44.07221
 2018-Dec-29 05:13  m  14 07 13.627010 -17 15 44.19727
 2018-Dec-29 05:14  m  14 07 13.754085 -17 15 44.32235
 2018-Dec-29 05:15  m  14 07 13.881146 -17 15 44.44744
 2018-Dec-29 05:16  m  14 07 14.008195 -17 15 44.57254
 2018-Dec-29 05:17  m  14 07 14.135230 -17 15 44.69766
 2018-Dec-29 05:18  m  14 07 14.262251 -17 15 44.82279
 2018-Dec-29 05:19  m  14 07 14.389259 -17 15 44.94793
 2018-Dec-29 05:20  m  14 07 14.516254 -17 15 45.07309
 2018-Dec-29 05:21  m  14 07 14.643236 -17 15 45.19825
 2018-Dec-29 05:22  m  14 07 14.770204 -17 15 45.32343
 2018-Dec-29 05:23  m  14 07 14.897158 -17 15 45.44862
 2018-Dec-29 05:24  m  14 07 15.024099 -17 15 45.57382
 2018-Dec-29 05:25  m  14 07 15.151027 -17 15 45.69903
 2018-Dec-29 05:26  m  14 07 15.277941 -17 15 45.82426
 2018-Dec-29 05:27  m  14 07 15.404842 -17 15 45.94949
 2018-Dec-29 05:28  r  14 07 15.531729 -17 15 46.07474
 2018-Dec-29 05:29  m  14 07 15.658603 -17 15 46.19999
 2018-Dec-29 05:30  m  14 07 15.785463 -17 15 46.32526
 2018-Dec-29 05:31  m  14 07 15.912310 -17 15 46.45053
 2018-Dec-29 05:32  m  14 07 16.039143 -17 15 46.57581
 2018-Dec-29 05:33  m  14 07 16.165963 -17 15 46.70111
 2018-Dec-29 05:34  m  14 07 16.292768 -17 15 46.82641
 2018-Dec-29 05:35  m  14 07 16.419561 -17 15 46.95172
 2018-Dec-29 05:36  m  14 07 16.546340 -17 15 47.07704
 2018-Dec-29 05:37  m  14 07 16.673105 -17 15 47.20236
 2018-Dec-29 05:38  m  14 07 16.799856 -17 15 47.32770
 2018-Dec-29 05:39  m  14 07 16.926594 -17 15 47.45304
 2018-Dec-29 05:40  m  14 07 17.053318 -17 15 47.57839
 2018-Dec-29 05:41  m  14 07 17.180029 -17 15 47.70375
 2018-Dec-29 05:42  m  14 07 17.306726 -17 15 47.82911
 2018-Dec-29 05:43  m  14 07 17.433409 -17 15 47.95448
 2018-Dec-29 05:44  m  14 07 17.560079 -17 15 48.07986
 2018-Dec-29 05:45  m  14 07 17.686735 -17 15 48.20525
 2018-Dec-29 05:46  m  14 07 17.813377 -17 15 48.33064
 2018-Dec-29 05:47  m  14 07 17.940005 -17 15 48.45603
 2018-Dec-29 05:48  m  14 07 18.066620 -17 15 48.58143
 2018-Dec-29 05:49  m  14 07 18.193221 -17 15 48.70684
 2018-Dec-29 05:50  m  14 07 18.319808 -17 15 48.83225
 2018-Dec-29 05:51  m  14 07 18.446382 -17 15 48.95766
 2018-Dec-29 05:52  m  14 07 18.572941 -17 15 49.08308
 2018-Dec-29 05:53  m  14 07 18.699487 -17 15 49.20851
 2018-Dec-29 05:54  m  14 07 18.826020 -17 15 49.33393
 2018-Dec-29 05:55  m  14 07 18.952538 -17 15 49.45937
 2018-Dec-29 05:56  m  14 07 19.079043 -17 15 49.58480
 2018-Dec-29 05:57  m  14 07 19.205534 -17 15 49.71024
 2018-Dec-29 05:58  m  14 07 19.332011 -17 15 49.83568
 2018-Dec-29 05:59  m  14 07 19.458474 -17 15 49.96112
 2018-Dec-29 06:00  m  14 07 19.584924 -17 15 50.08657
 2018-Dec-29 06:01  m  14 07 19.711359 -17 15 50.21202
 2018-Dec-29 06:02  m  14 07 19.837781 -17 15 50.33747
 2018-Dec-29 06:03  m  14 07 19.964189 -17 15 50.46292
 2018-Dec-29 06:04  m  14 07 20.090583 -17 15 50.58837
